NORAD_CAT_ID,OBJECT_NAME,OBJECT_TYPE,EPOCH,MEAN_MOTION,ECCENTRICITY,INCLINATION,RA_OF_ASC_NODE,ARG_OF_PERICENTER,MEAN_ANOMALY,BSTAR,MEAN_MOTION_DOT,MEAN_MOTION_DDOT,TLE_LINE0,TLE_LINE1,TLE_LINE2,SEMIMAJOR_AXIS,PERIOD,APOGEE,PERIGEE,DECAYED
52870.0,STARLINK-4195,PAYLOAD,2022-09-20 22:00:01,15.08821556,0.0002139,53.2202,306.3859,37.5689,215.6191,0.00075968,0.00011817,0.0,0 STARLINK-4195,1 52870U 22062AS  22263.91668981  .00011817  00000-0  75968-3 0  9993,2 52870  53.2202 306.3859 0002139  37.5689 215.6191 15.08821556  1305,6917.937,95.439,541.2819999999998,538.322,0.0
52870.0,STARLINK-4195,PAYLOAD,2022-09-21 08:00:01,15.08845422,0.000226,53.2202,304.5168,37.4381,320.1652,-0.0011679,-0.00018831,0.0,0 STARLINK-4195,1 52870U 22062AS  22264.33334491 -.00018831  00000-0 -11679-2 0  9999,2 52870  53.2202 304.5168 0002260  37.4381 320.1652 15.08845422 15397,6917.864000000001,95.437,541.2919999999998,538.165,0.0
52870.0,STARLINK-4195,PAYLOAD,2022-09-21 22:00:00,15.08826532,0.0002147,53.2201,301.8973,38.5362,249.3623,0.0021763999999999,0.00034507,0.0,0 STARLINK-4195,1 52870U 22062AS  22264.91667824  .00034507  00000-0  21764-2 0  9994,2 52870  53.2201 301.8973 0002147  38.5362 249.3623 15.08826532  1302,6917.922,95.438,541.2719999999998,538.3009999999998,0.0
52870.0,STARLINK-4195,PAYLOAD,2022-09-22 06:00:00,15.08875297,0.000217,53.22,300.4018,38.2729,261.2136,-0.0042706,-0.00067684,0.0,0 STARLINK-4195,1 52870U 22062AS  22265.25001157 -.00067684  00000-0 -42706-2 0  9996,2 52870  53.2200 300.4018 0002170  38.2729 261.2136 15.08875297 15530,6917.773,95.435,541.139,538.136,0.0
52870.0,STARLINK-4195,PAYLOAD,2022-09-22 14:00:01,15.08811859,0.0002295999999999,53.2196,298.9066,33.706,277.3912,0.0022234999999999,0.0003525,0.0,0 STARLINK-4195,1 52870U 22062AS  22265.58334491  .00035250  00000-0  22235-2 0  9999,2 52870  53.2196 298.9066 0002296  33.7060 277.3912 15.08811859  1309,6917.965999999999,95.439,541.42,538.243,0.0
52870.0,STARLINK-4195,PAYLOAD,2022-09-22 22:00:00,15.08811082,0.0002088,53.2195,297.4086,37.9373,284.7459,0.0025131999999999,0.00039905,0.0,0 STARLINK-4195,1 52870U 22062AS  22265.91667824  .00039905  00000-0  25132-2 0  9995,2 52870  53.2195 297.4086 0002088  37.9373 284.7459 15.08811082 15633,6917.969,95.439,541.278,538.389,0.0
52870.0,STARLINK-4195,PAYLOAD,2022-09-23 14:00:01,15.08831831,0.000231,53.2188,294.4178,35.308,310.5493,0.0018347,0.00029026,0.0,0 STARLINK-4195,1 52870U 22062AS  22266.58334491  .00029026  00000-0  18347-2 0  9993,2 52870  53.2188 294.4178 0002310  35.3080 310.5493 15.08831831 15730,6917.905,95.438,541.368,538.172,0.0
52870.0,STARLINK-4195,PAYLOAD,2022-09-23 22:00:00,15.08828948,0.0002088,53.2187,292.9198,39.5321,317.9307,0.0021614,0.00034268,0.0,0 STARLINK-4195,1 52870U 22062AS  22266.91667824  .00034268  00000-0  21614-2 0  9994,2 52870  53.2187 292.9198 0002088  39.5321 317.9307 15.08828948  1308,6917.9140000000025,95.438,541.224,538.335,0.0
52870.0,STARLINK-4195,PAYLOAD,2022-09-24 06:00:00,15.08859894,0.000218,53.2187,291.4245,38.3421,330.7198,-0.0032441,-0.00051578,0.0,0 STARLINK-4195,1 52870U 22062AS  22267.25001157 -.00051578  00000-0 -32441-2 0  9998,2 52870  53.2187 291.4245 0002180  38.3421 330.7198 15.08859894 15834,6917.82,95.436,541.193,538.1759999999998,0.0
52870.0,STARLINK-4195,PAYLOAD,2022-09-24 14:00:01,15.0882596,0.0002285,53.2181,289.9287,34.4412,346.2797,0.0014614,0.00023038,0.0,0 STARLINK-4195,1 52870U 22062AS  22267.58335648  .00023038  00000-0  14614-2 0  9999,2 52870  53.2181 289.9287 0002285  34.4412 346.2797 15.08825960  1300,6917.9230000000025,95.438,541.369,538.2080000000002,0.0
52870.0,STARLINK-4195,PAYLOAD,2022-09-24 22:00:00,15.08815995,0.0002084,53.218,288.4307,38.8384,353.416,0.0029829,0.00047474,0.0,0 STARLINK-4195,1 52870U 22062AS  22267.91667824  .00047474  00000-0  29829-2 0  9994,2 52870  53.2180 288.4307 0002084  38.8384 353.4160 15.08815995  1300,6917.954000000002,95.439,541.26,538.377,0.0
52870.0,STARLINK-4195,PAYLOAD,2022-09-25 14:00:01,15.08825485,0.0002314,53.2177,285.4395,33.2941,22.1439,0.001216,0.0001911,0.0,0 STARLINK-4195,1 52870U 22062AS  22268.58334491  .00019110  00000-0  12160-2 0  9995,2 52870  53.2177 285.4395 0002314  33.2941  22.1439 15.08825485  1308,6917.925,95.438,541.391,538.189,0.0
52870.0,STARLINK-4195,PAYLOAD,2022-09-26 00:00:00,15.0882071,0.0002136,53.2176,283.5674,40.3006,119.6068,0.0022271,0.00035316,0.0,0 STARLINK-4195,1 52870U 22062AS  22269.00001157  .00035316  00000-0  22271-2 0  9993,2 52870  53.2176 283.5674 0002136  40.3006 119.6068 15.08820710  1305,6917.939,95.439,541.2819999999998,538.327,0.0
52870.0,STARLINK-4195,PAYLOAD,2022-09-26 10:00:00,15.08823027,0.0002421999999999,53.2181,281.6988,36.2336,228.1637,0.0020387,0.00032293,0.0,0 STARLINK-4195,1 52870U 22062AS  22269.41667824  .00032293  00000-0  20387-2 0  9994,2 52870  53.2181 281.6988 0002422  36.2336 228.1637 15.08823027 16168,6917.932,95.439,541.4730000000002,538.122,0.0
52870.0,STARLINK-4195,PAYLOAD,2022-09-26 14:00:01,15.08852049,0.0002396999999999,53.2178,280.9501,34.1454,56.0397,-0.0013335999999999,-0.00021458,0.0,0 STARLINK-4195,1 52870U 22062AS  22269.58334491 -.00021458  00000-0 -13336-2 0  9992,2 52870  53.2178 280.9501 0002397  34.1454  56.0397 15.08852049  1303,6917.844,95.437,541.367,538.05,0.0
52870.0,STARLINK-4195,PAYLOAD,2022-09-26 22:00:00,15.08800701,0.0002176,53.2181,279.452,37.0623,64.7369,0.0030338,0.00048274,0.0,0 STARLINK-4195,1 52870U 22062AS  22269.91667824  .00048274  00000-0  30338-2 0  9992,2 52870  53.2181 279.4520 0002176  37.0623  64.7369 15.08800701 16237,6918.001,95.44,541.371,538.36,0.0
52870.0,STARLINK-4195,PAYLOAD,2022-09-27 00:00:00,15.08815809,0.0002198,53.2182,279.0779,38.956,155.7295,0.0019633,0.00031076,0.0,0 STARLINK-4195,1 52870U 22062AS  22270.00001157  .00031076  00000-0  19633-2 0  9992,2 52870  53.2182 279.0779 0002198  38.9560 155.7295 15.08815809  1300,6917.954000000002,95.439,541.34,538.299,0.0
52870.0,STARLINK-4195,PAYLOAD,2022-09-27 14:00:01,15.08843175,0.0002455,53.2184,276.4607,35.0153,89.9368,0.0004371,6.676e-05,0.0,0 STARLINK-4195,1 52870U 22062AS  22270.58334491  .00006676  00000-0  43710-3 0  9997,2 52870  53.2184 276.4607 0002455  35.0153  89.9368 15.08843175 16330,6917.871,95.437,541.434,538.0369999999998,0.0
52870.0,STARLINK-4195,PAYLOAD,2022-09-27 22:00:01,15.0882949,0.0002271,53.2188,274.9627,39.2125,97.4098,0.0031132,0.00049594,0.0,0 STARLINK-4195,1 52870U 22062AS  22270.91668981  .00049594  00000-0  31132-2 0  9998,2 52870  53.2188 274.9627 0002271  39.2125  97.4098 15.08829490  1309,6917.913000000001,95.438,541.349,538.206,0.0
52870.0,STARLINK-4195,PAYLOAD,2022-09-28 14:00:01,15.08858287,0.0002420999999999,53.2189,271.9714,34.3287,125.4414,-0.0023238,-0.00037102,0.0,0 STARLINK-4195,1 52870U 22062AS  22271.58334491 -.00037102  00000-0 -23238-2 0  9990,2 52870  53.2189 271.9714 0002421  34.3287 125.4414 15.08858287  1306,6917.824000000001,95.436,541.364,538.015,0.0
52870.0,STARLINK-4195,PAYLOAD,2022-09-28 22:00:00,15.08806333,0.0002183,53.2193,270.4735,36.8992,134.4743,0.0021815999999999,0.00034571,0.0,0 STARLINK-4195,1 52870U 22062AS  22271.91667824  .00034571  00000-0  21816-2 0  9991,2 52870  53.2193 270.4735 0002183  36.8992 134.4743 15.08806333  1303,6917.983,95.44,541.3580000000002,538.3380000000002,0.0
52870.0,STARLINK-4195,PAYLOAD,2022-09-29 14:00:01,15.08844922,0.000239,53.2193,267.4822,34.8667,159.65200000000004,-0.00081894,-0.000133,0.0,0 STARLINK-4195,1 52870U 22062AS  22272.58334491 -.00013300  00000-0 -81894-3 0  9998,2 52870  53.2193 267.4822 0002390  34.8667 159.6520 15.08844922 16644,6917.865,95.437,541.384,538.077,0.0
52870.0,STARLINK-4195,PAYLOAD,2022-09-29 22:00:00,15.0882643,0.0002198,53.2195,265.9846,39.4464,166.6711,0.0026888,0.00042749,0.0,0 STARLINK-4195,1 52870U 22062AS  22272.91667824  .00042749  00000-0  26888-2 0  9992,2 52870  53.2195 265.9846 0002198  39.4464 166.6711 15.08826430  1308,6917.922,95.438,541.307,538.266,0.0
52870.0,STARLINK-4195,PAYLOAD,2022-09-30 06:00:02,15.0885992,0.0002368,53.2195,264.4899,37.1765,180.6007,-0.0016155999999999,-0.00025924,0.0,0 STARLINK-4195,1 52870U 22062AS  22273.25002315 -.00025924  00000-0 -16156-2 0  9993,2 52870  53.2195 264.4899 0002368  37.1765 180.6007 15.08859920 16746,6917.82,95.436,541.323,538.0459999999998,0.0
52870.0,STARLINK-4195,PAYLOAD,2022-09-30 14:00:01,15.08855078,0.0002314,53.2192,262.9933,35.41900000000001,193.9052,-0.0019933,-0.00031886,0.0,0 STARLINK-4195,1 52870U 22062AS  22273.58334491 -.00031886  00000-0 -19933-2 0  9992,2 52870  53.2192 262.9933 0002314  35.4190 193.9052 15.08855078  1302,6917.834,95.437,541.3,538.099,0.0
52870.0,STARLINK-4195,PAYLOAD,2022-09-30 22:00:00,15.08836748,0.0002099,53.2193,261.4959,39.4403,201.4849,0.0015122,0.00023859,0.0,0 STARLINK-4195,1 52870U 22062AS  22273.91667824  .00023859  00000-0  15122-2 0  9993,2 52870  53.2193 261.4959 0002099  39.4403 201.4849 15.08836748 16843,6917.89,95.438,541.207,538.303,0.0
52870.0,STARLINK-4195,PAYLOAD,2022-10-01 14:00:01,15.08850611,0.0002215999999999,53.2188,258.5047,34.8805,229.2285,-0.0015839,-0.00025416,0.0,0 STARLINK-4195,1 52870U 22062AS  22274.58334491 -.00025416  00000-0 -15839-2 0  9996,2 52870  53.2188 258.5047 0002216  34.8805 229.2285 15.08850611 16946,6917.848000000001,95.437,541.246,538.18,0.0
52870.0,STARLINK-4195,PAYLOAD,2022-10-01 22:00:00,15.08835528,0.0002032,53.2188,257.0073,38.8963,236.8115,-0.00029861,-5.037e-05,0.0,0 STARLINK-4195,1 52870U 22062AS  22274.91667824 -.00005037  00000-0 -29861-3 0  9990,2 52870  53.2188 257.0073 0002032  38.8963 236.8115 15.08835528  1304,6917.894,95.438,541.165,538.3530000000002,0.0
52870.0,STARLINK-4195,PAYLOAD,2022-10-02 14:00:01,15.08851895,0.0002197,53.2183,254.016,35.3014,263.5692,-0.0014847999999999,-0.0002384999999999,0.0,0 STARLINK-4195,1 52870U 22062AS  22275.58334491 -.00023850  00000-0 -14848-2 0  9996,2 52870  53.2183 254.0160 0002197  35.3014 263.5692 15.08851895 17099,6917.844,95.437,541.229,538.189,0.0
